{
  "type": "FeatureCollection",
  "features": [
    {
      "type": "Feature",
      "properties": {
        "norad_id": 66676,
        "name": "TRANSPORTER-15 L",
        "group": "last-30-days",
        "lat": 76.14218701028791,
        "lon": -79.66767514542653,
        "alt_km": 511.39481785647604,
        "timestamp": "2025-12-22T18:58:52.137756+00:00",
        "meta_object_name": "TRANSPORTER-15 L",
        "meta_object_id": "2025-276L",
        "meta_epoch": "2025-12-22T05:52:03.829728",
        "meta_mean_motion": 15.16787396,
        "meta_eccentricity": 0.00048539,
        "meta_inclination": 97.439,
        "meta_ra_of_asc_node": 67.8147,
        "meta_arg_of_pericenter": 259.6826,
        "meta_mean_anomaly": 100.3861,
        "meta_ephemeris_type": 0,
        "meta_classification_type": "U",
        "meta_norad_cat_id": 66676,
        "meta_element_set_no": 999,
        "meta_rev_at_epoch": 356,
        "meta_bstar": 0.0005809276,
        "meta_mean_motion_dot": 0.00011355,
        "meta_mean_motion_ddot": 0,
        "tle_line1": "1 66676U 25276L   25356.24448877  .00011355  00000+0  58093-3 0  9990",
        "tle_line2": "2 66676  97.4390  67.8147 0004853 259.6826 100.3861 15.16787396  3562"
      },
      "geometry": {
        "type": "Point",
        "coordinates": [
          -79.66767514542653,
          76.14218701028791
        ]
      }
    },
    {
      "type": "Feature",
      "properties": {
        "norad_id": 66677,
        "name": "TRANSPORTER-15 M",
        "group": "last-30-days",
        "lat": 24.64378684723106,
        "lon": -108.19318383111543,
        "alt_km": 495.09120877138685,
        "timestamp": "2025-12-22T18:58:52.137766+00:00",
        "meta_object_name": "TRANSPORTER-15 M",
        "meta_object_id": "2025-276M",
        "meta_epoch": "2025-12-22T04:05:27.833856",
        "meta_mean_motion": 15.20048419,
        "meta_eccentricity": 0.00137568,
        "meta_inclination": 97.4387,
        "meta_ra_of_asc_node": 67.7578,
        "meta_arg_of_pericenter": 222.2681,
        "meta_mean_anomaly": 137.7495,
        "meta_ephemeris_type": 0,
        "meta_classification_type": "U",
        "meta_norad_cat_id": 66677,
        "meta_element_set_no": 999,
        "meta_rev_at_epoch": 355,
        "meta_bstar": 0.074518539,
        "meta_mean_motion_dot": 0.01760874,
        "meta_mean_motion_ddot": 0,
        "tle_line1": "1 66677U 25276M   25356.17046104  .01760874  00000+0  74519-1 0  9997",
        "tle_line2": "2 66677  97.4387  67.7578 0013756 222.2681 137.7495 15.20048419  3550"
      },
      "geometry": {
        "type": "Point",
        "coordinates": [
          -108.19318383111543,
          24.64378684723106
        ]
      }
    },
    {
      "type": "Feature",
      "properties": {
        "norad_id": 66678,
        "name": "TRANSPORTER-15 N",
        "group": "last-30-days",
        "lat": 73.07539133131942,
        "lon": -86.19353251600113,
        "alt_km": 511.1653446848486,
        "timestamp": "2025-12-22T18:58:52.137778+00:00",
        "meta_object_name": "TRANSPORTER-15 N",
        "meta_object_id": "2025-276N",
        "meta_epoch": "2025-12-22T05:51:09.880704",
        "meta_mean_motion": 15.16845661,
        "meta_eccentricity": 0.00049381,
        "meta_inclination": 97.4429,
        "meta_ra_of_asc_node": 67.8261,
        "meta_arg_of_pericenter": 252.7392,
        "meta_mean_anomaly": 107.3301,
        "meta_ephemeris_type": 0,
        "meta_classification_type": "U",
        "meta_norad_cat_id": 66678,
        "meta_element_set_no": 999,
        "meta_rev_at_epoch": 356,
        "meta_bstar": 0.00053887151,
        "meta_mean_motion_dot": 0.00010545,
        "meta_mean_motion_ddot": 0,
        "tle_line1": "1 66678U 25276N   25356.24386436  .00010545  00000+0  53887-3 0  9990",
        "tle_line2": "2 66678  97.4429  67.8261 0004938 252.7392 107.3301 15.16845661  3566"
      },
      "geometry": {
        "type": "Point",
        "coordinates": [
          -86.19353251600113,
          73.07539133131942
        ]
      }
    },
    {
      "type": "Feature",
      "properties": {
        "norad_id": 66679,
        "name": "TRANSPORTER-15 P",
        "group": "last-30-days",
        "lat": 71.18714168111292,
        "lon": -89.10025305248492,
        "alt_km": 504.664587434032,
        "timestamp": "2025-12-22T18:58:52.137788+00:00",
        "meta_object_name": "TRANSPORTER-15 P",
        "meta_object_id": "2025-276P",
        "meta_epoch": "2025-12-21T10:52:32.598048",
        "meta_mean_motion": 15.17590497,
        "meta_eccentricity": 0.00037983,
        "meta_inclination": 97.4397,
        "meta_ra_of_asc_node": 67.0293,
        "meta_arg_of_pericenter": 283.1797,
        "meta_mean_anomaly": 76.9013,
        "meta_ephemeris_type": 0,
        "meta_classification_type": "U",
        "meta_norad_cat_id": 66679,
        "meta_element_set_no": 999,
        "meta_rev_at_epoch": 344,
        "meta_bstar": 0.026256086,
        "meta_mean_motion_dot": 0.0056315,
        "meta_mean_motion_ddot": 0,
        "tle_line1": "1 66679U 25276P   25355.45315507  .00563150  00000+0  26256-1 0  9997",
        "tle_line2": "2 66679  97.4397  67.0293 0003798 283.1797  76.9013 15.17590497  3441"
      },
      "geometry": {
        "type": "Point",
        "coordinates": [
          -89.10025305248492,
          71.18714168111292
        ]
      }
    },
    {
      "type": "Feature",
      "properties": {
        "norad_id": 66680,
        "name": "TRANSPORTER-15 Q",
        "group": "last-30-days",
        "lat": 72.1422741819852,
        "lon": -87.7064496966258,
        "alt_km": 511.51500067642155,
        "timestamp": "2025-12-22T18:58:52.137799+00:00",
        "meta_object_name": "TRANSPORTER-15 Q",
        "meta_object_id": "2025-276Q",
        "meta_epoch": "2025-12-22T05:50:52.543680",
        "meta_mean_motion": 15.16819704,
        "meta_eccentricity": 0.00052213,
        "meta_inclination": 97.4415,
        "meta_ra_of_asc_node": 67.8219,
        "meta_arg_of_pericenter": 254.627,
        "meta_mean_anomaly": 105.4386,
        "meta_ephemeris_type": 0,
        "meta_classification_type": "U",
        "meta_norad_cat_id": 66680,
        "meta_element_set_no": 999,
        "meta_rev_at_epoch": 356,
        "meta_bstar": 0.00031376063,
        "meta_mean_motion_dot": 6.104e-05,
        "meta_mean_motion_ddot": 0,
        "tle_line1": "1 66680U 25276Q   25356.24366370  .00006104  00000+0  31376-3 0  9993",
        "tle_line2": "2 66680  97.4415  67.8219 0005221 254.6270 105.4386 15.16819704  3560"
      },
      "geometry": {
        "type": "Point",
        "coordinates": [
          -87.7064496966258,
          72.1422741819852
        ]
      }
    },
    {
      "type": "Feature",
      "properties": {
        "norad_id": 66681,
        "name": "TRANSPORTER-15 R",
        "group": "last-30-days",
        "lat": 45.76451178542477,
        "lon": -103.94559815778004,
        "alt_km": 512.4284673614065,
        "timestamp": "2025-12-22T18:58:52.137811+00:00",
        "meta_object_name": "TRANSPORTER-15 R",
        "meta_object_id": "2025-276R",
        "meta_epoch": "2025-12-22T05:43:57.407232",
        "meta_mean_motion": 15.17412521,
        "meta_eccentricity": 0.00050018,
        "meta_inclination": 97.4337,
        "meta_ra_of_asc_node": 67.8062,
        "meta_arg_of_pericenter": 278.1036,
        "meta_mean_anomaly": 81.963,
        "meta_ephemeris_type": 0,
        "meta_classification_type": "U",
        "meta_norad_cat_id": 66681,
        "meta_element_set_no": 999,
        "meta_rev_at_epoch": 356,
        "meta_bstar": 0.00091906793,
        "meta_mean_motion_dot": 0.00018345,
        "meta_mean_motion_ddot": 0,
        "tle_line1": "1 66681U 25276R   25356.23885888  .00018345  00000+0  91907-3 0  9999",
        "tle_line2": "2 66681  97.4337  67.8062 0005001 278.1036  81.9630 15.17412521  3564"
      },
      "geometry": {
        "type": "Point",
        "coordinates": [
          -103.94559815778004,
          45.76451178542477
        ]
      }
    },
    {
      "type": "Feature",
      "properties": {
        "norad_id": 66682,
        "name": "TRANSPORTER-15 S",
        "group": "last-30-days",
        "lat": 57.83722738673692,
        "lon": -99.6180171523517,
        "alt_km": 510.6068519217297,
        "timestamp": "2025-12-22T18:58:52.137821+00:00",
        "meta_object_name": "TRANSPORTER-15 S",
        "meta_object_id": "2025-276S",
        "meta_epoch": "2025-12-22T05:47:03.275232",
        "meta_mean_motion": 15.17119706,
        "meta_eccentricity": 0.00048357,
        "meta_inclination": 97.4457,
        "meta_ra_of_asc_node": 67.8381,
        "meta_arg_of_pericenter": 242.4964,
        "meta_mean_anomaly": 117.5779,
        "meta_ephemeris_type": 0,
        "meta_classification_type": "U",
        "meta_norad_cat_id": 66682,
        "meta_element_set_no": 999,
        "meta_rev_at_epoch": 356,
        "meta_bstar": 0.00060788614,
        "meta_mean_motion_dot": 0.00012,
        "meta_mean_motion_ddot": 0,
        "tle_line1": "1 66682U 25276S   25356.24101013  .00012000  00000+0  60789-3 0  9998",
        "tle_line2": "2 66682  97.4457  67.8381 0004835 242.4964 117.5779 15.17119706  3569"
      },
      "geometry": {
        "type": "Point",
        "coordinates": [
          -99.6180171523517,
          57.83722738673692
        ]
      }
    }
  ]
}